ORBCOMM FM20 [+]        
1 25416U 98046D   24016.64782399  .00002218  00000+0  82429-3 0  9996
2 25416  44.9942 107.3163 0001957 220.1880 139.8823 14.34783920329870
ORBCOMM FM16 [-]        
1 25417U 98046E   24017.79160270  .00002568  00000+0  93084-3 0  9999
2 25417  44.9943  98.4736 0005776 226.8761 133.1604 14.35609828329961
ORBCOMM FM15 [-]        
1 25418U 98046F   24017.37934649  .00002425  00000+0  88633-3 0  9999
2 25418  44.9972 104.2217 0005233 227.2506 132.7901 14.35355271329914
ORBCOMM FM14 [-]        
1 25419U 98046G   24016.39509622  .00003279  00000+0  11782-2 0  9998
2 25419  44.9962 108.1211 0003949 215.7474 264.7264 14.35477836329728
ORBCOMM FM13 [+]        
1 25420U 98046H   24016.57289232  .00002539  00000+0  93460-3 0  9994
2 25420  44.9973 111.5542 0006095 207.7941 152.2581 14.34863002328828
ORBCOMM FM21 [-]        
1 25475U 98053A   24017.56498528  .00001813  00000+0  68182-3 0  9999
2 25475  45.0072 191.0597 0001200 159.9760 200.1135 14.34853454323310
ORBCOMM FM22 [-]        
1 25476U 98053B   24017.37173959  .00002106  00000+0  77740-3 0  9993
2 25476  45.0067 189.6799 0002963 152.7324 207.3679 14.35281369322947
ORBCOMM FM23 [-]        
1 25477U 98053C   24017.59540749  .00002027  00000+0  75629-3 0  9999
2 25477  45.0072 193.3666 0002223 151.6620 208.4349 14.34858885323135
